CCSDS_OMM_VERS = 2.0
CREATION_DATE  = 
ORIGINATOR     = 

OBJECT_NAME    = ECHOSTAR 25
OBJECT_ID      = 2026-045A
CENTER_NAME    = EARTH
REF_FRAME      = TEME
TIME_SYSTEM    = UTC
MEAN_ELEMENT_THEORY = SGP/SGP4

EPOCH          = 2026-03-11T09:52:45.155136
MEAN_MOTION    = 3.74430284
ECCENTRICITY   = .62093977
INCLINATION    = 26.8991
RA_OF_ASC_NODE = 70.3993
ARG_OF_PERICENTER = 175.3735
MEAN_ANOMALY   = 195.5868

EPHEMERIS_TYPE = 0
CLASSIFICATION_TYPE = U
NORAD_CAT_ID   = 68126
ELEMENT_SET_NO = 999
REV_AT_EPOCH   = 5
BSTAR          = .64832912E-4
MEAN_MOTION_DOT = .389E-5
MEAN_MOTION_DDOT = 0

